CCSDS_OEM_VERS = 1.0
CREATION_DATE  = 2017-05-11T12:04:02
ORIGINATOR     = GMAT USER

META_START
OBJECT_NAME          = MOPSSat_alt_35785_km_RAAN_270_130
OBJECT_ID            = SatId
CENTER_NAME          = Earth
REF_FRAME            = EME2000
TIME_SYSTEM          = UTC
START_TIME           = 2017-01-01T00:00:00.000
USEABLE_START_TIME   = 2017-01-01T00:00:00.000
USEABLE_STOP_TIME    = 2017-01-02T00:00:00.000
STOP_TIME            = 2017-01-02T00:00:00.000
INTERPOLATION        = Lagrange
INTERPOLATION_DEGREE = 7 
META_STOP


                                                                                   

2017-01-01T06:15:50.000   3.713694828780291e+04   2.730280014864409e+04   6.546759986772774e+03  -9.095184237941518e-01   2.610771779960886e+00  -1.604480804800897e-01
2017-01-01T06:16:00.000   3.712784577034232e+04   2.732890247239512e+04   6.545154213174595e+03  -9.109849205705117e-01   2.609692991085134e+00  -1.607066130968605e-01
2017-01-01T06:16:10.000   3.711872859331477e+04   2.735499400609673e+04   6.543545855202814e+03  -9.124503184869796e-01   2.608613715989242e+00  -1.609649519019244e-01
2017-01-01T06:16:20.000   3.710959676771547e+04   2.738107474486197e+04   6.541934914796714e+03  -9.139146181284853e-01   2.607533955547982e+00  -1.612230969984668e-01
2017-01-01T06:16:30.000   3.710045030452765e+04   2.740714468383114e+04   6.540321393893462e+03  -9.153778200808286e-01   2.606453710633895e+00  -1.614810484898263e-01
2017-01-01T06:16:40.000   3.709128921474974e+04   2.743320381809217e+04   6.538705294432917e+03  -9.168399249261932e-01   2.605372982120555e+00  -1.617388064787040e-01
2017-01-01T06:16:50.000   3.708211350938578e+04   2.745925214271212e+04   6.537086618355907e+03  -9.183009332449485e-01   2.604291770881338e+00  -1.619963710674814e-01
2017-01-01T06:17:00.000   3.707292319943933e+04   2.748528965275109e+04   6.535465367603201e+03  -9.197608456164035e-01   2.603210077788784e+00  -1.622537423583527e-01
2017-01-01T06:17:10.000   3.706371829590257e+04   2.751131634329340e+04   6.533841544113546e+03  -9.212196626205545e-01   2.602127903713316e+00  -1.625109204536332e-01
2017-01-01T06:17:20.000   3.705449880975197e+04   2.753733220946279e+04   6.532215149822915e+03  -9.226773848389622e-01   2.601045249522659e+00  -1.627679054559142e-01
2017-01-01T06:17:30.000   3.704526475193643e+04   2.756333724645222e+04   6.530586186662423e+03  -9.241340128563924e-01   2.599962116080534e+00  -1.630246974683520e-01
2017-01-01T06:17:40.000   3.703601613340570e+04   2.758933144944519e+04   6.528954656563336e+03  -9.255895472564201e-01   2.598878504249960e+00  -1.632812965938925e-01
2017-01-01T06:17:50.000   3.702675296498719e+04   2.761531481395720e+04   6.527320561435330e+03  -9.270439886405011e-01   2.597794414878944e+00  -1.635377029386341e-01
2017-01-01T06:18:00.000   3.701747525753491e+04   2.764128733542169e+04   6.525683903192791e+03  -9.284973376048323e-01   2.596709848817819e+00  -1.637939166077485e-01
2017-01-01T06:18:10.000   3.700818302187345e+04   2.766724900934662e+04   6.524044683744888e+03  -9.299495947491120e-01   2.595624806912702e+00  -1.640499377070238e-01
2017-01-01T06:18:20.000   3.699887626901497e+04   2.769319983070741e+04   6.522402905033910e+03  -9.314007606425726e-01   2.594539290030860e+00  -1.643057663368775e-01
2017-01-01T06:18:30.000   3.698955500994234e+04   2.771913979455406e+04   6.520758568996954e+03  -9.328508358579498e-01   2.593453299035349e+00  -1.645614025983451e-01
2017-01-01T06:18:40.000   3.698021925566485e+04   2.774506889585431e+04   6.519111677575794e+03  -9.342998209627073e-01   2.592366834791559e+00  -1.648168465915319e-01
2017-01-01T06:18:50.000   3.697086901707088e+04   2.777098712990889e+04   6.517462232690866e+03  -9.357477165422913e-01   2.591279898149925e+00  -1.650720984197137e-01
2017-01-01T06:19:00.000   3.696150430504930e+04   2.779689449200861e+04   6.515810236262693e+03  -9.371945231809160e-01   2.590192489960184e+00  -1.653271581859493e-01
2017-01-01T06:19:10.000   3.695212513046151e+04   2.782279097751350e+04   6.514155690206947e+03  -9.386402414659992e-01   2.589104611068104e+00  -1.655820259938618e-01
2017-01-01T06:19:20.000   3.694273150415139e+04   2.784867658182144e+04   6.512498596436226e+03  -9.400848719863757e-01   2.588016262316716e+00  -1.658367019473243e-01
2017-01-01T06:19:30.000   3.693332343695148e+04   2.787455130035428e+04   6.510838956861108e+03  -9.415284153315522e-01   2.586927444546968e+00  -1.660911861503284e-01
2017-01-01T06:19:40.000   3.692390093969408e+04   2.790041512852692e+04   6.509176773392149e+03  -9.429708720899781e-01   2.585838158599017e+00  -1.663454787066788e-01
2017-01-01T06:19:50.000   3.691446402321589e+04   2.792626806173212e+04   6.507512047940661e+03  -9.444122428481730e-01   2.584748405312825e+00  -1.665995797198405e-01
2017-01-01T06:20:00.000   3.690501269836993e+04   2.795211009531085e+04   6.505844782420847e+03  -9.458525281891060e-01   2.583658185529469e+00  -1.668534892926522e-01
2017-01-01T06:20:10.000   3.689554697599654e+04   2.797794122463043e+04   6.504174978744673e+03  -9.472917286965363e-01   2.582567500087820e+00  -1.671072075280920e-01
2017-01-01T06:20:20.000   3.688606686704951e+04   2.800376144474526e+04   6.502502638844106e+03  -9.487298449361602e-01   2.581476349838963e+00  -1.673607345259536e-01
2017-01-01T06:20:30.000   3.687657238244343e+04   2.802957075080819e+04   6.500827764644224e+03  -9.501668774784796e-01   2.580384735628742e+00  -1.676140703868780e-01
2017-01-01T06:20:40.000   3.686706353311047e+04   2.805536913791740e+04   6.499150358073177e+03  -9.516028268902865e-01   2.579292658304244e+00  -1.678672152108516e-01
2017-01-01T06:20:50.000   3.685754032978159e+04   2.808115660170991e+04   6.497470421023640e+03  -9.530376937677039e-01   2.578200118688688e+00  -1.681201691030322e-01
2017-01-01T06:21:00.000   3.684800278320460e+04   2.810693313776948e+04   6.495787955391246e+03  -9.544714787032132e-01   2.577107117606480e+00  -1.683729321679352e-01
2017-01-01T06:21:10.000   3.683845090409496e+04   2.813269874176088e+04   6.494102963065930e+03  -9.559041822931473e-01   2.576013655877540e+00  -1.686255045107550e-01
2017-01-01T06:21:20.000   3.682888470325749e+04   2.815845340909474e+04   6.492415445953397e+03  -9.573358051189828e-01   2.574919734331411e+00  -1.688778862340671e-01
2017-01-01T06:21:30.000   3.681930419149665e+04   2.818419713517684e+04   6.490725405959280e+03  -9.587663477612693e-01   2.573825353796803e+00  -1.691300774402832e-01
2017-01-01T06:21:40.000   3.680970937961572e+04   2.820992991540743e+04   6.489032844988999e+03  -9.601958107995674e-01   2.572730515101579e+00  -1.693820782316410e-01
2017-01-01T06:21:50.000   3.680010027851090e+04   2.823565174493524e+04   6.487337764964369e+03  -9.616241947988485e-01   2.571635219083340e+00  -1.696338887078059e-01
2017-01-01T06:22:00.000   3.679047689904530e+04   2.826136261898946e+04   6.485640167801378e+03  -9.630515003278693e-01   2.570539466575190e+00  -1.698855089691107e-01
2017-01-01T06:22:10.000   3.678083925209837e+04   2.828706253274866e+04   6.483940055418882e+03  -9.644777279519132e-01   2.569443258411344e+00  -1.701369391152759e-01
2017-01-01T06:22:20.000   3.677118734834845e+04   2.831275148192092e+04   6.482237429700268e+03  -9.659028782649828e-01   2.568346595402387e+00  -1.703881792510849e-01
2017-01-01T06:22:30.000   3.676152119849008e+04   2.833842946216355e+04   6.480532292531784e+03  -9.673269518575948e-01   2.567249478360017e+00  -1.706392294807063e-01
2017-01-01T06:22:40.000   3.675184081318512e+04   2.836409646921460e+04   6.478824645793909e+03  -9.687499493240798e-01   2.566151908091455e+00  -1.708900899089814e-01
2017-01-01T06:22:50.000   3.674214620318625e+04   2.838975249855880e+04   6.477114491383131e+03  -9.701718712440053e-01   2.565053885413605e+00  -1.711407606381483e-01
2017-01-01T06:23:00.000   3.673243737924568e+04   2.841539754567588e+04   6.475401831195881e+03  -9.715927181960072e-01   2.563955411142567e+00  -1.713912417702814e-01
2017-01-01T06:23:10.000   3.672271435211461e+04   2.844103160604005e+04   6.473686667128394e+03  -9.730124907577304e-01   2.562856486093609e+00  -1.716415334072801e-01
2017-01-01T06:23:20.000   3.671297713263852e+04   2.846665467487492e+04   6.471969001093531e+03  -9.744311894923202e-01   2.561757111091803e+00  -1.718916356484876e-01
2017-01-01T06:23:30.000   3.670322573162938e+04   2.849226674748402e+04   6.470248834998263e+03  -9.758488149666716e-01   2.560657286957732e+00  -1.721415485939082e-01
2017-01-01T06:23:40.000   3.669346015991678e+04   2.851786781911800e+04   6.468526170752654e+03  -9.772653677440860e-01   2.559557014513224e+00  -1.723912723429123e-01
2017-01-01T06:23:50.000   3.668368042812393e+04   2.854345788556201e+04   6.466801010230357e+03  -9.786808484167728e-01   2.558456294556108e+00  -1.726408069999670e-01
2017-01-01T06:24:00.000   3.667388654689202e+04   2.856903694254661e+04   6.465073355308209e+03  -9.800952575732527e-01   2.557355127885527e+00  -1.728901526688888e-01
2017-01-01T06:24:10.000   3.666407852682244e+04   2.859460498589997e+04   6.463343207856023e+03  -9.815085958067824e-01   2.556253515295398e+00  -1.731393094543291e-01
2017-01-01T06:24:20.000   3.665425637863192e+04   2.862016201113841e+04   6.461610569763956e+03  -9.829208636926653e-01   2.555151457591972e+00  -1.733882774577740e-01
2017-01-01T06:24:30.000   3.664442011302468e+04   2.864570801380436e+04   6.459875442919961e+03  -9.843320618069922e-01   2.554048955579353e+00  -1.736370567808490e-01
2017-01-01T06:24:40.000   3.663456974072102e+04   2.867124298939095e+04   6.458137829214820e+03  -9.857421907224525e-01   2.552946010062743e+00  -1.738856475245791e-01
2017-01-01T06:24:50.000   3.662470527245042e+04   2.869676693336324e+04   6.456397730540946e+03  -9.871512510095412e-01   2.551842621847582e+00  -1.741340497896031e-01
